NORAD_CAT_ID,OBJECT_NAME,OBJECT_TYPE,EPOCH,MEAN_MOTION,ECCENTRICITY,INCLINATION,RA_OF_ASC_NODE,ARG_OF_PERICENTER,MEAN_ANOMALY,BSTAR,MEAN_MOTION_DOT,MEAN_MOTION_DDOT,TLE_LINE0,TLE_LINE1,TLE_LINE2,SEMIMAJOR_AXIS,PERIOD,APOGEE,PERIGEE,DECAYED
53543.0,STARLINK-4297,PAYLOAD,2023-01-16 10:32:01,15.08833995,0.0001331999999999,53.215,178.8818,85.3702,274.7442,5.444800000000001e-05,5.79e-06,0.0,0 STARLINK-4297,1 53543U 22101S   23016.43891177  .00000579  00000-0  54448-4 0  9998,2 53543  53.2150 178.8818 0001332  85.3702 274.7442 15.08833995 23649,6917.899,95.438,540.685,538.842,0.0
53543.0,STARLINK-4297,PAYLOAD,2023-01-16 20:04:20,15.08841875,0.0001169,53.2154,177.0958,99.531,260.5814,4.3932e-05,4.11e-06,0.0,0 STARLINK-4297,1 53543U 22101S   23016.83634658  .00000411  00000-0  43932-4 0  9992,2 53543  53.2154 177.0958 0001169  99.5310 260.5814 15.08841875 23012,6917.875,95.437,540.548,538.931,0.0
53543.0,STARLINK-4297,PAYLOAD,2023-01-17 10:22:49,15.08830762,0.0001247,53.2173,174.4204,98.1486,261.9648,4.241e-05,3.87e-06,0.0,0 STARLINK-4297,1 53543U 22101S   23017.43251502  .00000387  00000-0  42410-4 0  9994,2 53543  53.2173 174.4204 0001247  98.1486 261.9648 15.08830762 23107,6917.909000000001,95.438,540.636,538.911,0.0
53543.0,STARLINK-4297,PAYLOAD,2023-01-17 19:55:08,15.08836908,0.0001315999999999,53.2153,172.6361,96.5036,263.6106,-8.0584e-06,-4.16e-06,0.0,0 STARLINK-4297,1 53543U 22101S   23017.82995390 -.00000416  00000-0 -80584-5 0  9997,2 53543  53.2153 172.6361 0001316  96.5036 263.6106 15.08836908 23857,6917.89,95.438,540.665,538.844,0.0
53543.0,STARLINK-4297,PAYLOAD,2023-01-18 13:24:22,15.08833993,0.0001414,53.2141,169.3649,95.2849,264.8304,-3.5657e-05,-8.55e-06,0.0,0 STARLINK-4297,1 53543U 22101S   23018.55859901 -.00000855  00000-0 -35657-4 0  9992,2 53543  53.2141 169.3649 0001414  95.2849 264.8304 15.08833993 23969,6917.899,95.438,540.742,538.786,0.0
53543.0,STARLINK-4297,PAYLOAD,2023-01-18 16:35:08,15.08836832,0.0001042,53.2155,168.7701,91.1954,268.9157,3.1879e-06,-2.37e-06,0.0,0 STARLINK-4297,1 53543U 22101S   23018.69107613 -.00000237  00000-0  31879-5 0  9999,2 53543  53.2155 168.7701 0001042  91.1954 268.9157 15.08836832 23297,6917.89,95.438,540.476,539.034,0.0
53543.0,STARLINK-4297,PAYLOAD,2023-01-19 10:04:23,15.08834078,0.0001149,53.2163,165.4997,95.7157,264.3966,9.5748e-06,-1.35e-06,0.0,0 STARLINK-4297,1 53543U 22101S   23019.41971943 -.00000135  00000-0  95748-5 0  9997,2 53543  53.2163 165.4997 0001149  95.7157 264.3966 15.08834078 24097,6917.898,95.438,540.558,538.969,0.0
53543.0,STARLINK-4297,PAYLOAD,2023-01-20 01:58:14,15.08842497,0.0001062,53.2175,162.5269,90.8901,269.2212,-1.875e-06,-3.18e-06,0.0,0 STARLINK-4297,1 53543U 22101S   23020.08211528 -.00000318  00000-0 -18750-5 0  9990,2 53543  53.2175 162.5269 0001062  90.8901 269.2212 15.08842497 23504,6917.8730000000005,95.437,540.472,539.003,0.0
53543.0,STARLINK-4297,PAYLOAD,2023-01-20 09:55:10,15.08837736,0.0001013,53.2173,161.0398,89.395,270.7158,8.7808e-05,1.11e-05,0.0,0 STARLINK-4297,1 53543U 22101S   23020.41331519  .00001110  00000-0  87808-4 0  9998,2 53543  53.2173 161.0398 0001013  89.3950 270.7158 15.08837736 24240,6917.887,95.438,540.453,539.052,0.0
53543.0,STARLINK-4297,PAYLOAD,2023-01-20 16:16:42,15.08848845,0.0001034,53.2179,159.8528,78.3248,281.7861,0.00011708,1.576e-05,0.0,0 STARLINK-4297,1 53543U 22101S   23020.67826731  .00001576  00000-0  11708-3 0  9992,2 53543  53.2179 159.8528 0001034  78.3248 281.7861 15.08848845 23590,6917.853,95.437,540.434,539.003,0.0
53543.0,STARLINK-4297,PAYLOAD,2023-01-21 01:49:01,15.08838581,0.0001077,53.2173,158.0662,82.4174,277.694,1.9505e-05,2.3e-07,0.0,0 STARLINK-4297,1 53543U 22101S   23021.07571580  .00000023  00000-0  19505-4 0  9996,2 53543  53.2173 158.0662 0001077  82.4174 277.6940 15.08838581 23650,6917.885,95.438,540.495,539.005,0.0
53543.0,STARLINK-4297,PAYLOAD,2023-01-21 09:45:58,15.08830855,0.0001291999999999,53.2186,156.5803,90.5284,269.5856,-9.0826e-05,-1.733e-05,0.0,0 STARLINK-4297,1 53543U 22101S   23021.40692639 -.00001733  00000-0 -90826-4 0  9998,2 53543  53.2186 156.5803 0001292  90.5284 269.5856 15.08830855 23703,6917.908,95.438,540.6669999999999,538.88,0.0
53543.0,STARLINK-4297,PAYLOAD,2023-01-21 16:07:30,15.0884227,0.0001036,53.2179,155.3901,80.6094,279.5015,-1.6583e-06,-3.14e-06,0.0,0 STARLINK-4297,1 53543U 22101S   23021.67187640 -.00000314  00000-0 -16583-5 0  9991,2 53543  53.2179 155.3901 0001036  80.6094 279.5015 15.08842270 23742,6917.8730000000005,95.437,540.455,539.0219999999999,0.0
53543.0,STARLINK-4297,PAYLOAD,2023-01-22 09:36:45,15.08838739,0.0001177,53.2194,152.1216,90.7127,269.4,-6.6893e-05,-1.352e-05,0.0,0 STARLINK-4297,1 53543U 22101S   23022.40052143 -.00001352  00000-0 -66893-4 0  9993,2 53543  53.2194 152.1216 0001177  90.7127 269.4000 15.08838739 23857,6917.884,95.438,540.563,538.935,0.0
53543.0,STARLINK-4297,PAYLOAD,2023-01-22 15:58:16,15.08849626,0.0001117,53.2168,150.9302,96.0948,264.0171,-2.3959e-06,-3.26e-06,0.0,0 STARLINK-4297,1 53543U 22101S   23022.66547121 -.00000326  00000-0 -23959-5 0  9993,2 53543  53.2168 150.9302 0001117  96.0948 264.0171 15.08849626 23895,6917.851,95.437,540.489,538.943,0.0
53543.0,STARLINK-4297,PAYLOAD,2023-01-23 07:52:09,15.08831136,0.0001621999999999,53.2182,147.9601,72.0149,288.10200000000003,3.3544e-05,2.46e-06,0.0,0 STARLINK-4297,1 53543U 22101S   23023.32788447  .00000246  00000-0  33544-4 0  9994,2 53543  53.2182 147.9601 0001622  72.0149 288.1020 15.08831136 23995,6917.906999999999,95.438,540.895,538.65,0.0
53543.0,STARLINK-4297,PAYLOAD,2023-01-24 01:21:23,15.08837741,0.0001399,53.2178,144.6871,83.3568,276.7583,1.6447e-05,-2.6e-07,0.0,0 STARLINK-4297,1 53543U 22101S   23024.05652120 -.00000026  00000-0  16447-4 0  9993,2 53543  53.2178 144.6871 0001399  83.3568 276.7583 15.08837741 24103,6917.887,95.438,540.72,538.784,0.0
53543.0,STARLINK-4297,PAYLOAD,2023-01-25 12:19:52,15.08834547,0.0001385999999999,53.2176,138.1455,82.3915,277.7235,-8.6971e-06,-4.26e-06,0.0,0 STARLINK-4297,1 53543U 22101S   23025.51380557 -.00000426  00000-0 -86971-5 0  9992,2 53543  53.2176 138.1455 0001386  82.3915 277.7235 15.08834547 24328,6917.897,95.438,540.721,538.803,0.0
53543.0,STARLINK-4297,PAYLOAD,2023-01-25 13:55:15,15.08838323,0.0001325,53.2177,137.846,92.5224,267.592,1.2398e-06,-2.68e-06,0.0,0 STARLINK-4297,1 53543U 22101S   23025.58004245 -.00000268  00000-0  12398-5 0  9991,2 53543  53.2177 137.8460 0001325  92.5224 267.5920 15.08838323 25022,6917.886,95.438,540.6669999999999,538.8340000000001,0.0
53543.0,STARLINK-4297,PAYLOAD,2023-01-26 13:46:02,15.08845451,0.0001395,53.218,133.3853,104.5217,255.593,5.8842e-07,-2.79e-06,0.0,0 STARLINK-4297,1 53543U 22101S   23026.57363904 -.00000279  00000-0  58842-6 0  9998,2 53543  53.2180 133.3853 0001395 104.5217 255.5930 15.08845451 25170,6917.8640000000005,95.437,540.694,538.764,0.0
53543.0,STARLINK-4297,PAYLOAD,2023-01-27 12:01:26,15.08835289,0.0001272,53.2181,129.2237,100.4206,259.693,2.3649e-05,8.8e-07,0.0,0 STARLINK-4297,1 53543U 22101S   23027.50100519  .00000088  00000-0  23649-4 0  9995,2 53543  53.2181 129.2237 0001272 100.4206 259.6930 15.08835289 24620,6917.895,95.438,540.64,538.88,0.0
53543.0,STARLINK-4297,PAYLOAD,2023-01-28 13:27:37,15.08834471,0.0001289,53.2187,124.468,101.1529,258.9608,-3.3538e-05,-8.21e-06,0.0,0 STARLINK-4297,1 53543U 22101S   23028.56085136 -.00000821  00000-0 -33538-4 0  9994,2 53543  53.2187 124.4680 0001289 101.1529 258.9608 15.08834471 25479,6917.897,95.438,540.654,538.871,0.0
53543.0,STARLINK-4297,PAYLOAD,2023-01-28 16:38:22,15.08872391,0.0001393,53.2179,123.8694,112.75,247.364,-0.00047305,-7.815e-05,0.0,0 STARLINK-4297,1 53543U 22101S   23028.69332072 -.00007815  00000-0 -47305-3 0  9998,2 53543  53.2179 123.8694 0001393 112.7500 247.3640 15.08872391 24808,6917.781,95.436,540.61,538.683,0.0
53543.0,STARLINK-4297,PAYLOAD,2023-01-28 22:59:55,15.08844824,0.0001039,53.2167,122.6808,86.0908,274.0203,-9.213e-05,-1.754e-05,0.0,0 STARLINK-4297,1 53543U 22101S   23028.95828536 -.00001754  00000-0 -92130-4 0  9995,2 53543  53.2167 122.6808 0001039  86.0908 274.0203 15.08844824 24847,6917.866,95.437,540.449,539.012,0.0
53543.0,STARLINK-4297,PAYLOAD,2023-01-29 14:53:47,15.08841674,0.0001131,53.2172,119.7075,94.5508,265.5613,3.857e-05,3.26e-06,0.0,0 STARLINK-4297,1 53543U 22101S   23029.62068495  .00000326  00000-0  38570-4 0  9990,2 53543  53.2172 119.7075 0001131  94.5508 265.5613 15.08841674 25637,6917.875,95.437,540.523,538.958,0.0
53543.0,STARLINK-4297,PAYLOAD,2023-01-30 05:12:16,15.08830518,0.0001285,53.218,117.0327,103.3177,256.7958,2.0897e-05,4.5e-07,0.0,0 STARLINK-4297,1 53543U 22101S   23030.21685393  .00000045  00000-0  20897-4 0  9990,2 53543  53.2180 117.0327 0001285 103.3177 256.7958 15.08830518 25031,6917.909,95.438,540.663,538.885,0.0
53543.0,STARLINK-4297,PAYLOAD,2023-01-30 11:33:48,15.08833296,0.0001222,53.2176,115.8416,99.3343,260.7788,-2.9551e-06,-3.35e-06,0.0,0 STARLINK-4297,1 53543U 22101S   23030.48181456 -.00000335  00000-0 -29551-5 0  9991,2 53543  53.2176 115.8416 0001222  99.3343 260.7788 15.08833296 25763,6917.901,95.438,540.611,538.921,0.0
53543.0,STARLINK-4297,PAYLOAD,2023-01-30 14:44:34,15.08834511,0.0001209,53.2173,115.2464,97.8451,262.2678,3.3795e-06,-2.34e-06,0.0,0 STARLINK-4297,1 53543U 22101S   23030.61429398 -.00000234  00000-0  33795-5 0  9998,2 53543  53.2173 115.2464 0001209  97.8451 262.2678 15.08834511 25783,6917.897,95.438,540.599,538.926,0.0
53543.0,STARLINK-4297,PAYLOAD,2023-01-31 11:24:35,15.08842423,9.23e-05,53.2172,111.3818,81.5358,278.5739,1.8254e-05,3e-08,0.0,0 STARLINK-4297,1 53543U 22101S   23031.47540936  .00000003  00000-0  18254-4 0  9990,2 53543  53.2172 111.3818 0000923  81.5358 278.5739 15.08842423 25228,6917.873,95.437,540.377,539.099,0.0
